#cP2024  3  1 18  0  0.00000000     577 d+D   IGS20 EXT AIUB
## 2303 496800.00000000   300.00000000 60370 0.7500000000000
+   79   G01G02G03G04G05G06G07G08G09G10G11G12G13G14G15G16G17
+        G18G19G20G21G22G23G24G25G26G27G28G29G30G31G32R01R02
+        R03R04R05R07R08R09R11R12R13R14R15R16R17R18R19R20R21
+        R22R24R26E02E03E04E05E07E08E09E10E11E12E13E14E15E18
+        E19E21E24E25E26E27E30E31E33E34E36  0  0  0  0  0  0
++         7  7  5  6  7  6  7  6  6  6  7  7  7  5  7  7  7
++         7  7  7  7  7  6  6  5  6  6  6  7  6  7  6  8  7
++         8  7  7  7  7  6  6  6  8  6  6  7  8  8  9  9  8
++         7  8  7  5  7  7  7  7  7  7  7  6  6  7  6  6  6
++         7  6  6  5  7  6  5  6  6  7  7  0  0  0  0  0  0
%c M  cc GPS ccc cccc cccc cccc cccc ccccc ccccc ccccc ccccc
%c cc cc ccc ccc cccc cccc cccc cccc ccccc ccccc ccccc ccccc
%f  1.2500000  1.025000000  0.00000000000  0.000000000000000
%f  0.0000000  0.000000000  0.00000000000  0.000000000000000
%i    0    0    0    0      0      0      0      0         0
%i    0    0    0    0      0      0      0      0         0
/* Center for Orbit Determination in Europe (CODE)          
/* Ultra-rapid GRE orbits starting year-day 24061 18 hour   
/* Observed/predicted: 24/24 hours (data used up to 062R)   
/* PCV:IGS20      OL/AL:FES2014b NONE     YN ORB:CoN CLK:BRD
*  2024  3  3  3 50  0.00000000
PG01  -4304.762129  18135.855024 -19131.754845    172.054525               P   P
PG02 -11988.804499  20409.701725 -11288.823854   -476.464137               P   P
PG03   -228.105626  15707.773936 -21580.401757    228.831717               P   P
PG04  -2351.205263  25750.536020  -5725.269981    305.650778               P   P
PG05  14002.004780  -9448.928373  20346.391635   -163.954313               P   P
PG06  21323.131643  -2326.617482 -15667.777698    384.093114               P   P
PG07   7808.731731  13633.568044  21887.927892    -75.382652               P   P
PG08  -6928.005120  21435.507575  13621.116167     26.487405               P   P
PG09   7926.357063  24314.297354   6983.392570    111.419826               P   P
PG10 -24405.755730 -10913.714715   -200.527584      0.905155               P   P
PG11  23572.213175 -11075.519288  -5057.473171   -594.565065               P   P
PG12   2271.343379 -15798.551771 -21526.727125   -483.515003               P   P
PG13  13103.145386 -13709.144438  18298.410446    630.720182               P   P
PG14  22780.797083  13517.754797   3082.085431    340.622372               P   P
PG15   4341.048786 -22300.236331  13099.200648    133.633133               P   P
PG16 -19347.312635   3315.663139  17767.394938   -349.947605               P   P
PG17  12423.888585  15300.989771 -17306.977664    715.075030               P   P
PG18  -8134.758602 -12506.273590  21984.803707   -567.724020               P   P
PG19  14739.071335   5851.063933 -21546.131838    448.616317               P   P
PG20  23339.189347  -3006.638504  12223.265178    385.362490               P   P
PG21 -15596.304123  19594.637470  -6671.268159    132.831115               P   P
PG22  23946.346527   9974.332761  -4497.318835     22.033204               P   P
PG23 -18195.529071 -15880.548331  11292.205601    168.545857               P   P
PG24  12489.821491 -20990.284891 -10321.538205   -440.672049               P   P
PG25  -9680.344684 -17874.220559 -17573.362814    490.250898               P   P
PG26 -25200.429863  -2450.273210   8464.083264    183.970376               P   P
PG27 -13144.436612  10172.553641  20334.938420     -8.806069               P   P
PG28 -20101.909069    158.160099 -17374.677456   -150.702345               P   P
PG29  -4371.833978 -25526.111314   5594.190762   -605.732137               P   P
PG30  17280.979063   5451.783218  19633.060015   -424.999830               P   P
PG31 -23721.162746   7760.656451  -9860.223543   -227.910001               P   P
PG32 -14472.897484 -11714.914534 -18814.069853   -614.344788               P   P
PR01  -2609.455737 -19941.378000  15690.019798     78.663324               P   P
PR02 -11898.384432 -22592.359439   -656.161189    -22.520981               P   P
PR03 -15129.383491 -12085.449686 -16585.598514     95.646920               P   P
PR04  -9704.418756   4546.766899 -23112.656277    225.879637               P   P
PR05    673.580417  18843.823024 -17149.552577    127.794221               P   P
PR07  15026.281995  11174.667388  17341.075752     77.055767               P   P
PR08   9658.375551  -4981.960694  23142.602221    -74.595213               P   P
PR09  12553.143512   9973.555404  19880.979582    173.189865               P   P
PR11  23369.169638  -3859.783944  -9483.427747     32.514880               P   P
PR12   7396.514929 -10349.783878 -22088.700501     37.346035               P   P
PR13  -9894.195148 -10384.606771 -21114.353340    -44.912100               P   P
PR14 -24365.819287  -3806.506405  -6477.640812     26.142225               P   P
PR15 -22652.701017   4430.876673  10865.391138     81.675618               P   P
PR16  -7622.038337  10209.011651  22095.207277     23.782136               P   P
PR17 -12325.394430    315.445013  22343.906767     65.928886               P   P
PR18 -16521.342112  14824.594246  12530.608903    130.225161               P   P
PR19 -13809.349544  21336.241508  -2150.928283   -267.923906               P   P
PR20   -353.513473  15894.037216 -19921.692493   -109.189575               P   P
PR21  12326.264956   -405.755176 -22324.233185    -81.487281               P   P
PR22  17110.245985 -15086.757957 -11407.382774    110.895246               P   P
PR24  -1066.752594 -15757.890499  20044.826418    -46.235560               P   P
PR26  10154.828286  -3972.374899  23085.603262   -195.424211               P   P
PE02 -26904.033434  -4099.217759  11655.087265    108.068636               P   P
PE03 -16917.761647   1170.516446 -24259.854376    -97.647198               P   P
PE04  10237.865007 -21894.769473  17098.055075   -340.647560               P   P
PE05 -13613.127627 -19920.707869 -17139.594570   4725.453722               P   P
PE07   2072.962412  29528.996555   -412.801749   -106.801840               P   P
PE08 -10504.530334  21318.034728 -17647.780267   -232.850493               P   P
PE09  -1995.539352 -29521.291646    549.641541   -356.622428               P   P
PE10  14352.193391 -21343.009301  14652.026231   -606.340668               P   P
PE11   4149.804249 -19786.361879  21621.402524   3206.314899               P   P
PE12  21351.397052 -19545.981635   6250.666463   -931.379205               P   P
PE13  -4822.004919  19932.256621 -21333.574318    -20.378729               P   P
PE14   2271.594196  31584.322845  -1101.241565 999999.999999               P   P
PE15 -21647.947722  19347.802232  -5715.550587    -89.022056               P   P
PE18   2808.250699 -23990.254511  -4062.373126 999999.999999               P   P
PE19  16913.893934   1490.590723  24256.866441   -505.763448               P   P
PE21  23946.607913  16253.299118   6188.240823   -581.951704               P   P
PE24  -6381.047208 -19538.717317 -21331.789346   -629.851052               P   P
PE25 -23724.734679 -16443.698464  -6576.080704      1.632847               P   P
PE26  15158.611202   8505.096434 -23953.483184    385.327375               P   P
PE27   6840.702989  19511.489692  21171.020639   -289.047218               P   P
PE30 -14348.683136  11077.630467  23385.827027    -55.503077               P   P
PE31  14074.311315 -11236.087529 -23491.276022    -17.332664               P   P
PE33  25415.075943  -7005.440550 -13458.662335      8.451942               P   P
PE34 -25516.796670   7483.385850  13000.477729    -97.815713               P   P
PE36 -14512.787971  -8880.481108  24223.569948   -193.881190               P   P
EOF
